[{"OBJECT_NAME":"STARLINK-1559","OBJECT_ID":"2020-055BC","EPOCH":"2026-03-09T05:36:23.522976","MEAN_MOTION":15.29461733,"ECCENTRICITY":0.0004229,"INCLINATION":53.0254,"RA_OF_ASC_NODE":76.0659,"ARG_OF_PERICENTER":33.971,"MEAN_ANOMALY":326.1559,"EPHEMERIS_TYPE":0,"CLASSIFICATION_TYPE":"U","NORAD_CAT_ID":46077,"ELEMENT_SET_NO":999,"REV_AT_EPOCH":30951,"BSTAR":0.0014778793,"MEAN_MOTION_DOT":0.00042685,"MEAN_MOTION_DDOT":0},{"OBJECT_NAME":"STARLINK-31775","OBJECT_ID":"2024-112Q","EPOCH":"2026-03-09T07:12:42.188256","MEAN_MOTION":15.3018723,"ECCENTRICITY":0.00013218,"INCLINATION":53.1601,"RA_OF_ASC_NODE":80.0421,"ARG_OF_PERICENTER":74.2211,"MEAN_ANOMALY":285.8936,"EPHEMERIS_TYPE":0,"CLASSIFICATION_TYPE":"U","NORAD_CAT_ID":60052,"ELEMENT_SET_NO":999,"REV_AT_EPOCH":9853,"BSTAR":1.4867204e-5,"MEAN_MOTION_DOT":8.1e-7,"MEAN_MOTION_DDOT":0}]
