STARLINK-1559           
1 46077U 20055BC  26068.23360559  .00042685  00000+0  14779-2 0  9995
2 46077  53.0254  76.0659 0004229  33.9710 326.1559 15.29461733309518
STARLINK-31775          
1 60052U 24112Q   26068.30048829  .00000081  00000+0  14867-4 0  9997
2 60052  53.1601  80.0421 0001321  74.2211 285.8936 15.30187230 98536
